LANDSAT 9               
1 49260U 21088A   24050.16703598  .00000806  00000+0  18884-3 0  9995
2 49260  98.2006 121.7366 0001151 109.5422 250.5900 14.57135995127353
